[{"OBJECT_NAME":"OBJECT F","OBJECT_ID":"2023-072F","EPOCH":"2026-03-09T23:31:37.259904","MEAN_MOTION":15.29470958,"ECCENTRICITY":0.00062878,"INCLINATION":97.5173,"RA_OF_ASC_NODE":265.798,"ARG_OF_PERICENTER":19.0017,"MEAN_ANOMALY":341.1456,"EPHEMERIS_TYPE":0,"CLASSIFICATION_TYPE":"U","NORAD_CAT_ID":56748,"ELEMENT_SET_NO":999,"REV_AT_EPOCH":15460,"BSTAR":0.00043416252,"MEAN_MOTION_DOT":0.00012341,"MEAN_MOTION_DDOT":0},{"OBJECT_NAME":"STARLINK-32846","OBJECT_ID":"2025-022P","EPOCH":"2026-03-09T10:37:40.547424","MEAN_MOTION":15.30198612,"ECCENTRICITY":0.00013975,"INCLINATION":53.1582,"RA_OF_ASC_NODE":130.6518,"ARG_OF_PERICENTER":79.6401,"MEAN_ANOMALY":280.4757,"EPHEMERIS_TYPE":0,"CLASSIFICATION_TYPE":"U","NORAD_CAT_ID":62867,"ELEMENT_SET_NO":999,"REV_AT_EPOCH":6186,"BSTAR":0.00063014654,"MEAN_MOTION_DOT":0.00018349,"MEAN_MOTION_DDOT":0}]
